*******************************************************************************
Ephemeris / WWW_USER Mon Mar 24 08:14:23 2025 Pasadena, USA      / Horizons    
*******************************************************************************
Target body name: (2018 VN1)                      {source: JPL#9}
Center body name: Earth (399)                     {source: DE441}
Center-site name: Mauna Kea
*******************************************************************************
Start time      : A.D. 2018-Nov-23 03:51:00.0000 UT      
Stop  time      : A.D. 2018-Nov-23 16:25:00.0000 UT      
Step-size       : 1 minutes
*******************************************************************************
Target pole/equ : undefined
Target radii    : undefined                                                    
Center geodetic : 204.5278, 19.8260847, 4.21024   {E-lon(deg),Lat(deg),Alt(km)}
Center cylindric: 204.5278, 6006.35451, 2151.0229 {E-lon(deg),Dxy(km),Dz(km)}
Center pole/equ : ITRF93                          {East-longitude positive}
Center radii    : 6378.137, 6378.137, 6356.752 km {Equator_a, b, pole_c}       
Target primary  : Sun
Vis. interferer : MOON (R_eq= 1737.400) km        {source: DE441}
Rel. light bend : Sun                             {source: DE441}
Rel. lght bnd GM: 1.3271E+11 km^3/s^2                                          
Small-body perts: Yes                             {source: SB441-N16}
Atmos refraction: NO (AIRLESS)
RA format       : HMS
Time format     : CAL 
Calendar mode   : Mixed Julian/Gregorian
RTS-only print  : NO       
EOP file        : eop.250321.p250617                                           
EOP coverage    : DATA-BASED 1962-JAN-20 TO 2025-MAR-21. PREDICTS-> 2025-JUN-16
Units conversion: 1 au= 149597870.700 km, c= 299792.458 km/s, 1 day= 86400.0 s 
Table cut-offs 1: Elevation (-90.0deg=NO ),Airmass (>38.000=NO), Daylight (YES)
Table cut-offs 2: Solar elongation (  0.0,180.0=NO ),Local Hour Angle( 0.0=NO )
Table cut-offs 3: RA/DEC angular rate (     0.0=NO )                           
*******************************************************************************
Initial IAU76/J2000 heliocentric ecliptic osculating elements (au, days, deg.):
  EPOCH=  2458428.5 ! 2018-Nov-06.00 (TDB)         Residual RMS= .27219        
   EC= .3884608603153671   QR= 1.011903292497374   TP= 2458433.1511739166      
   OM= 228.4137592171332   W=  180.2469578564258   IN= 3.355185598403424       
  Equivalent ICRF heliocentric cartesian coordinates (au, au/d):
   X= 7.364971791856070E-01  Y= 6.361813492829538E-01  Z= 2.815132693616627E-01
  VX=-1.417073247356795E-02 VY= 1.354428742085641E-02 VZ= 4.590405825264917E-03
Asteroid physical parameters (km, seconds, rotational period in hours):        
   GM= n.a.                RAD= n.a.               ROTPER= n.a.                
   H= 26.2                 G= .150                 B-V= n.a.                   
                           ALBEDO= n.a.            STYP= n.a.                  
*******************************************************************************
 Date__(UT)__HR:MN     R.A._________(ICRF)_________DEC
******************************************************
$$SOE
 2018-Nov-23 05:54  m  07 26 47.741701 +05 42 14.25852
 2018-Nov-23 05:55  m  07 26 47.924451 +05 42 12.82020
 2018-Nov-23 05:56  m  07 26 48.107012 +05 42 11.38211
 2018-Nov-23 05:57  m  07 26 48.289382 +05 42 09.94424
 2018-Nov-23 05:58  m  07 26 48.471561 +05 42 08.50660
 2018-Nov-23 05:59  m  07 26 48.653549 +05 42 07.06918
 2018-Nov-23 06:00  m  07 26 48.835346 +05 42 05.63199
 2018-Nov-23 06:01  m  07 26 49.016952 +05 42 04.19501
 2018-Nov-23 06:02  m  07 26 49.198365 +05 42 02.75826
 2018-Nov-23 06:03  m  07 26 49.379586 +05 42 01.32173
 2018-Nov-23 06:04  m  07 26 49.560614 +05 41 59.88541
 2018-Nov-23 06:05  m  07 26 49.741450 +05 41 58.44931
 2018-Nov-23 06:06  m  07 26 49.922092 +05 41 57.01342
 2018-Nov-23 06:07  m  07 26 50.102540 +05 41 55.57775
 2018-Nov-23 06:08  m  07 26 50.282794 +05 41 54.14229
 2018-Nov-23 06:09  m  07 26 50.462854 +05 41 52.70704
 2018-Nov-23 06:10  m  07 26 50.642720 +05 41 51.27200
 2018-Nov-23 06:11  m  07 26 50.822390 +05 41 49.83717
 2018-Nov-23 06:12  m  07 26 51.001865 +05 41 48.40255
 2018-Nov-23 06:13  m  07 26 51.181145 +05 41 46.96814
 2018-Nov-23 06:14  m  07 26 51.360229 +05 41 45.53393
 2018-Nov-23 06:15  m  07 26 51.539116 +05 41 44.09992
 2018-Nov-23 06:16  m  07 26 51.717808 +05 41 42.66612
 2018-Nov-23 06:17  m  07 26 51.896302 +05 41 41.23252
 2018-Nov-23 06:18  m  07 26 52.074600 +05 41 39.79912
 2018-Nov-23 06:19  m  07 26 52.252700 +05 41 38.36592
 2018-Nov-23 06:20  m  07 26 52.430602 +05 41 36.93292
 2018-Nov-23 06:21  m  07 26 52.608307 +05 41 35.50012
 2018-Nov-23 06:22  m  07 26 52.785813 +05 41 34.06751
 2018-Nov-23 06:23  m  07 26 52.963121 +05 41 32.63510
 2018-Nov-23 06:24  m  07 26 53.140231 +05 41 31.20287
 2018-Nov-23 06:25  m  07 26 53.317141 +05 41 29.77085
 2018-Nov-23 06:26  m  07 26 53.493853 +05 41 28.33901
 2018-Nov-23 06:27  m  07 26 53.670364 +05 41 26.90736
 2018-Nov-23 06:28  m  07 26 53.846677 +05 41 25.47590
 2018-Nov-23 06:29  m  07 26 54.022789 +05 41 24.04463
 2018-Nov-23 06:30  m  07 26 54.198701 +05 41 22.61354
 2018-Nov-23 06:31  m  07 26 54.374412 +05 41 21.18264
 2018-Nov-23 06:32  m  07 26 54.549923 +05 41 19.75192
 2018-Nov-23 06:33  m  07 26 54.725233 +05 41 18.32139
 2018-Nov-23 06:34  m  07 26 54.900342 +05 41 16.89103
 2018-Nov-23 06:35  m  07 26 55.075249 +05 41 15.46086
 2018-Nov-23 06:36  m  07 26 55.249955 +05 41 14.03086
 2018-Nov-23 06:37  m  07 26 55.424459 +05 41 12.60104
 2018-Nov-23 06:38  m  07 26 55.598761 +05 41 11.17140
 2018-Nov-23 06:39  m  07 26 55.772861 +05 41 09.74193
 2018-Nov-23 06:40  m  07 26 55.946758 +05 41 08.31264
 2018-Nov-23 06:41  m  07 26 56.120453 +05 41 06.88351
 2018-Nov-23 06:42  m  07 26 56.293944 +05 41 05.45456
 2018-Nov-23 06:43  m  07 26 56.467233 +05 41 04.02578
 2018-Nov-23 06:44  m  07 26 56.640318 +05 41 02.59717
 2018-Nov-23 06:45  m  07 26 56.813200 +05 41 01.16872
 2018-Nov-23 06:46  m  07 26 56.985879 +05 40 59.74045
 2018-Nov-23 06:47  m  07 26 57.158353 +05 40 58.31233
 2018-Nov-23 06:48  m  07 26 57.330624 +05 40 56.88438
 2018-Nov-23 06:49  m  07 26 57.502690 +05 40 55.45659
 2018-Nov-23 06:50  m  07 26 57.674552 +05 40 54.02897
 2018-Nov-23 06:51  m  07 26 57.846209 +05 40 52.60150
 2018-Nov-23 06:52  m  07 26 58.017662 +05 40 51.17419
 2018-Nov-23 06:53  m  07 26 58.188910 +05 40 49.74704
 2018-Nov-23 06:54  m  07 26 58.359953 +05 40 48.32005
 2018-Nov-23 06:55  m  07 26 58.530791 +05 40 46.89321
 2018-Nov-23 06:56  m  07 26 58.701423 +05 40 45.46653
 2018-Nov-23 06:57  m  07 26 58.871850 +05 40 44.03999
 2018-Nov-23 06:58  m  07 26 59.042071 +05 40 42.61361
 2018-Nov-23 06:59  m  07 26 59.212087 +05 40 41.18738
 2018-Nov-23 07:00  m  07 26 59.381896 +05 40 39.76130
 2018-Nov-23 07:01  m  07 26 59.551500 +05 40 38.33536
 2018-Nov-23 07:02  m  07 26 59.720898 +05 40 36.90957
 2018-Nov-23 07:03  m  07 26 59.890089 +05 40 35.48393
 2018-Nov-23 07:04  m  07 27 00.059074 +05 40 34.05843
 2018-Nov-23 07:05  m  07 27 00.227852 +05 40 32.63307
 2018-Nov-23 07:06  m  07 27 00.396424 +05 40 31.20786
 2018-Nov-23 07:07  m  07 27 00.564789 +05 40 29.78278
 2018-Nov-23 07:08  m  07 27 00.732947 +05 40 28.35784
 2018-Nov-23 07:09  m  07 27 00.900898 +05 40 26.93304
 2018-Nov-23 07:10  m  07 27 01.068642 +05 40 25.50838
 2018-Nov-23 07:11  m  07 27 01.236179 +05 40 24.08385
 2018-Nov-23 07:12  m  07 27 01.403508 +05 40 22.65945
 2018-Nov-23 07:13  m  07 27 01.570631 +05 40 21.23519
 2018-Nov-23 07:14  m  07 27 01.737546 +05 40 19.81105
 2018-Nov-23 07:15  m  07 27 01.904253 +05 40 18.38705
 2018-Nov-23 07:16  m  07 27 02.070753 +05 40 16.96318
 2018-Nov-23 07:17  m  07 27 02.237045 +05 40 15.53943
 2018-Nov-23 07:18  m  07 27 02.403129 +05 40 14.11581
 2018-Nov-23 07:19  m  07 27 02.569006 +05 40 12.69232
 2018-Nov-23 07:20  m  07 27 02.734675 +05 40 11.26895
 2018-Nov-23 07:21  m  07 27 02.900136 +05 40 09.84570
 2018-Nov-23 07:22  r  07 27 03.065389 +05 40 08.42257
 2018-Nov-23 07:23  m  07 27 03.230433 +05 40 06.99956
 2018-Nov-23 07:24  m  07 27 03.395270 +05 40 05.57667
 2018-Nov-23 07:25  m  07 27 03.559899 +05 40 04.15390
 2018-Nov-23 07:26  m  07 27 03.724319 +05 40 02.73124
 2018-Nov-23 07:27  m  07 27 03.888532 +05 40 01.30870
 2018-Nov-23 07:28  m  07 27 04.052536 +05 39 59.88627
 2018-Nov-23 07:29  m  07 27 04.216332 +05 39 58.46396
 2018-Nov-23 07:30  m  07 27 04.379919 +05 39 57.04175
 2018-Nov-23 07:31  m  07 27 04.543298 +05 39 55.61966
 2018-Nov-23 07:32  m  07 27 04.706469 +05 39 54.19767
 2018-Nov-23 07:33  m  07 27 04.869432 +05 39 52.77580
 2018-Nov-23 07:34  m  07 27 05.032186 +05 39 51.35402
 2018-Nov-23 07:35  m  07 27 05.194732 +05 39 49.93236
 2018-Nov-23 07:36  m  07 27 05.357069 +05 39 48.51079
 2018-Nov-23 07:37  m  07 27 05.519198 +05 39 47.08933
 2018-Nov-23 07:38  m  07 27 05.681119 +05 39 45.66797
 2018-Nov-23 07:39  m  07 27 05.842831 +05 39 44.24671
 2018-Nov-23 07:40  m  07 27 06.004335 +05 39 42.82555
 2018-Nov-23 07:41  m  07 27 06.165631 +05 39 41.40448
 2018-Nov-23 07:42  m  07 27 06.326718 +05 39 39.98351
 2018-Nov-23 07:43  m  07 27 06.487597 +05 39 38.56264
 2018-Nov-23 07:44  m  07 27 06.648268 +05 39 37.14186
 2018-Nov-23 07:45  m  07 27 06.808731 +05 39 35.72117
 2018-Nov-23 07:46  m  07 27 06.968985 +05 39 34.30058
 2018-Nov-23 07:47  m  07 27 07.129031 +05 39 32.88007
 2018-Nov-23 07:48  m  07 27 07.288869 +05 39 31.45965
 2018-Nov-23 07:49  m  07 27 07.448499 +05 39 30.03932
 2018-Nov-23 07:50  m  07 27 07.607921 +05 39 28.61908
 2018-Nov-23 07:51  m  07 27 07.767135 +05 39 27.19892
 2018-Nov-23 07:52  m  07 27 07.926141 +05 39 25.77884
 2018-Nov-23 07:53  m  07 27 08.084939 +05 39 24.35885
 2018-Nov-23 07:54  m  07 27 08.243529 +05 39 22.93893
 2018-Nov-23 07:55  m  07 27 08.401912 +05 39 21.51910
 2018-Nov-23 07:56  m  07 27 08.560087 +05 39 20.09935
